NORAD_CAT_ID,OBJECT_NAME,OBJECT_TYPE,EPOCH,MEAN_MOTION,ECCENTRICITY,INCLINATION,RA_OF_ASC_NODE,ARG_OF_PERICENTER,MEAN_ANOMALY,BSTAR,MEAN_MOTION_DOT,MEAN_MOTION_DDOT,TLE_LINE0,TLE_LINE1,TLE_LINE2,SEMIMAJOR_AXIS,PERIOD,APOGEE,PERIGEE,DECAYED
56487.0,STARLINK-6196,PAYLOAD,2024-03-13 11:52:38,14.9833494,0.0002945,69.9999,135.5301,268.6809,91.4012,-0.00018031,-2.244e-05,0.0,0 STARLINK-6196,1 56487U 23064AR  24073.49488910 -.00002244  00000-0 -18031-3 0  9994,2 56487  69.9999 135.5301 0002945 268.6809  91.4012 14.98334940 47452,6950.178,96.107,574.089,569.996,0.0
56487.0,STARLINK-6196,PAYLOAD,2024-03-14 05:30:06,14.98329474,0.0003142,69.9991,133.6779,273.2555,86.8245,2.4094e-05,1.94e-06,0.0,0 STARLINK-6196,1 56487U 23064AR  24074.22924620  .00000194  00000-0  24094-4 0  9996,2 56487  69.9991 133.6779 0003142 273.2555  86.8245 14.98329474 47926,6950.195,96.107,574.243,569.876,0.0
56487.0,STARLINK-6196,PAYLOAD,2024-03-14 13:30:46,14.9833516,0.0002891,69.9998,132.837,267.3265,92.7563,0.00011437,1.272e-05,0.0,0 STARLINK-6196,1 56487U 23064AR  24074.56303897  .00001272  00000-0  11437-3 0  9994,2 56487  69.9998 132.8370 0002891 267.3265  92.7563 14.98335160 47976,6950.177,96.107,574.051,570.033,0.0
56487.0,STARLINK-6196,PAYLOAD,2024-03-15 05:32:07,14.98325629,0.0002722,70.0004,131.1553,266.8975,93.1872,6.3115e-05,6.6e-06,0.0,0 STARLINK-6196,1 56487U 23064AR  24075.23064551  .00000660  00000-0  63115-4 0  9991,2 56487  70.0004 131.1553 0002722 266.8975  93.1872 14.98325629 48076,6950.206,96.107,573.963,570.18,0.0
56487.0,STARLINK-6196,PAYLOAD,2024-03-15 11:56:40,14.98325331,0.0002727,70.0001,130.4817,267.3682,92.7165,5.0852e-05,5.14e-06,0.0,0 STARLINK-6196,1 56487U 23064AR  24075.49768672  .00000514  00000-0  50852-4 0  9996,2 56487  70.0001 130.4817 0002727 267.3682  92.7165 14.98325331 47758,6950.207,96.107,573.968,570.177,0.0
56487.0,STARLINK-6196,PAYLOAD,2024-03-16 11:58:40,14.98331342,0.0002834,69.9999,127.9567,271.2238,88.8597,-5.9139e-05,-7.99e-06,0.0,0 STARLINK-6196,1 56487U 23064AR  24076.49908518 -.00000799  00000-0 -59139-4 0  9996,2 56487  69.9999 127.9567 0002834 271.2238  88.8597 14.98331342 48265,6950.189,96.107,574.023,570.084,0.0
56487.0,STARLINK-6196,PAYLOAD,2024-03-16 13:34:49,14.98331505,0.0002835,69.9999,127.7883,271.3165,88.7669,-5.627e-05,-7.64e-06,0.0,0 STARLINK-6196,1 56487U 23064AR  24076.56584493 -.00000764  00000-0 -56270-4 0  9991,2 56487  69.9999 127.7883 0002835 271.3165  88.7669 14.98331505 47916,6950.188,96.107,574.024,570.083,0.0
56487.0,STARLINK-6196,PAYLOAD,2024-03-17 12:00:41,14.98332626,0.0002979,69.9993,125.4319,268.1224,91.9594,3.1971e-05,2.89e-06,0.0,0 STARLINK-6196,1 56487U 23064AR  24077.50047988  .00000289  00000-0  31971-4 0  9990,2 56487  69.9993 125.4319 0002979 268.1224  91.9594 14.98332626 48412,6950.185,96.107,574.12,569.979,0.0
56487.0,STARLINK-6196,PAYLOAD,2024-03-17 13:36:49,14.98332813,0.0002982,69.9993,125.2636,268.3882,91.6935,3.3393e-05,3.05e-06,0.0,0 STARLINK-6196,1 56487U 23064AR  24077.56723961  .00000305  00000-0  33393-4 0  9997,2 56487  69.9993 125.2636 0002982 268.3882  91.6935 14.98332813 48063,6950.184,96.107,574.122,569.977,0.0
56487.0,STARLINK-6196,PAYLOAD,2024-03-18 12:02:42,14.9832485,0.0002739,69.9997,122.9072,263.8452,96.2395,-1.112e-05,-2.26e-06,0.0,0 STARLINK-6196,1 56487U 23064AR  24078.50188629 -.00000226  00000-0 -11120-4 0  9996,2 56487  69.9997 122.9072 0002739 263.8452  96.2395 14.98324850 48566,6950.209,96.107,573.977,570.17,0.0
56487.0,STARLINK-6196,PAYLOAD,2024-03-19 12:04:43,14.98332649,0.0002638,70.0002,120.3834,257.465,102.6214,4.2227e-05,4.11e-06,0.0,0 STARLINK-6196,1 56487U 23064AR  24079.50327837  .00000411  00000-0  42227-4 0  9999,2 56487  70.0002 120.3834 0002638 257.4650 102.6214 14.98332649 48715,6950.185,96.107,573.883,570.216,0.0
56487.0,STARLINK-6196,PAYLOAD,2024-03-20 12:06:44,14.98326709,0.000273,69.9998,117.8585,259.8748,100.2104,2.475e-05,2.02e-06,0.0,0 STARLINK-6196,1 56487U 23064AR  24080.50468180  .00000202  00000-0  24750-4 0  9997,2 56487  69.9998 117.8585 0002730 259.8748 100.2104 14.98326709 48506,6950.203,96.107,573.965,570.171,0.0
56487.0,STARLINK-6196,PAYLOAD,2024-03-21 12:08:45,14.98330227,0.0002806,69.9994,115.3327,267.3497,92.7341,-4.3487e-05,-6.12e-06,0.0,0 STARLINK-6196,1 56487U 23064AR  24081.50608184 -.00000612  00000-0 -43487-4 0  9993,2 56487  69.9994 115.3327 0002806 267.3497  92.7341 14.98330227 49013,6950.192,96.107,574.007,570.107,0.0
56487.0,STARLINK-6196,PAYLOAD,2024-03-22 12:10:45,14.98336364,0.0002876,69.999,112.8073,268.6907,91.3922,9.0349e-05,9.85e-06,0.0,0 STARLINK-6196,1 56487U 23064AR  24082.50747229  .00000985  00000-0  90349-4 0  9998,2 56487  69.9990 112.8073 0002876 268.6907  91.3922 14.98336364 49160,6950.173,96.107,574.037,570.039,0.0
56487.0,STARLINK-6196,PAYLOAD,2024-03-22 21:47:34,14.98325215,0.0002703,69.9995,111.7988,265.9384,94.1467,-1.6783e-05,-2.93e-06,0.0,0 STARLINK-6196,1 56487U 23064AR  24082.90804235 -.00000293  00000-0 -16783-4 0  9997,2 56487  69.9995 111.7988 0002703 265.9384  94.1467 14.98325215 48860,6950.208,96.107,573.951,570.194,0.0
56487.0,STARLINK-6196,PAYLOAD,2024-03-23 04:12:07,14.98320489,0.0002735,69.9993,111.1245,267.6373,92.4473,-6.6009e-05,-8.8e-06,0.0,0 STARLINK-6196,1 56487U 23064AR  24083.17508767 -.00000880  00000-0 -66009-4 0  9996,2 56487  69.9993 111.1245 0002735 267.6373  92.4473 14.98320489 49261,6950.222,96.108,573.988,570.186,0.0
56487.0,STARLINK-6196,PAYLOAD,2024-03-23 12:12:46,14.98335872,0.0002879,69.9988,110.2822,262.7471,97.3361,8.6893e-05,9.44e-06,0.0,0 STARLINK-6196,1 56487U 23064AR  24083.50887315  .00000944  00000-0  86893-4 0  9994,2 56487  69.9988 110.2822 0002879 262.7471  97.3361 14.98335872 49318,6950.175,96.107,574.041,570.039,0.0
56487.0,STARLINK-6196,PAYLOAD,2024-03-23 18:37:18,14.98339588,0.0003017,69.9986,109.6078,272.0867,87.9946,8.2054e-05,8.86e-06,0.0,0 STARLINK-6196,1 56487U 23064AR  24083.77591020  .00000886  00000-0  82054-4 0  9998,2 56487  69.9986 109.6078 0003017 272.0867  87.9946 14.98339588 48994,6950.163,96.106,574.125,569.931,0.0
56487.0,STARLINK-6196,PAYLOAD,2024-03-24 10:38:40,14.98329967,0.0002392,69.9999,107.9263,263.4312,96.6575,-2.0525e-05,-3.38e-06,0.0,0 STARLINK-6196,1 56487U 23064AR  24084.44351915 -.00000338  00000-0 -20525-4 0  9999,2 56487  69.9999 107.9263 0002392 263.4312  96.6575 14.98329967 49456,6950.193,96.107,573.72,570.396,0.0
56487.0,STARLINK-6196,PAYLOAD,2024-03-24 18:39:20,14.98329263,0.0002447,69.9997,107.0838,273.2614,86.8265,-4.8759e-05,-6.75e-06,0.0,0 STARLINK-6196,1 56487U 23064AR  24084.77732011 -.00000675  00000-0 -48759-4 0  9998,2 56487  69.9997 107.0838 0002447 273.2614  86.8265 14.98329263 49140,6950.195,96.107,573.761,570.359,0.0
56487.0,STARLINK-6196,PAYLOAD,2024-03-25 10:40:41,14.9832141,0.0002724,69.9993,105.4005,267.2458,92.8389,-2.1403e-06,-1.18e-06,0.0,0 STARLINK-6196,1 56487U 23064AR  24085.44492501 -.00000118  00000-0 -21403-5 0  9990,2 56487  69.9993 105.4005 0002724 267.2458  92.8389 14.98321410 49602,6950.219,96.108,573.978,570.191,0.0
56487.0,STARLINK-6196,PAYLOAD,2024-03-25 18:41:21,14.98331425,0.0002687,69.9992,104.557,270.4812,89.6039,-0.00022015,-2.719e-05,0.0,0 STARLINK-6196,1 56487U 23064AR  24085.77872506 -.00002719  00000-0 -22015-3 0  9990,2 56487  69.9992 104.5570 0002687 270.4812  89.6039 14.98331425 49294,6950.188,96.107,573.921,570.186,0.0
56487.0,STARLINK-6196,PAYLOAD,2024-03-26 09:03:54,15.0035597,0.0004769,69.9994,103.0374,295.5171,64.5495,0.021869,0.0028647,0.0,0 STARLINK-6196,1 56487U 23064AR  24086.37771903  .00286470  00000-0  21869-1 0  9996,2 56487  69.9994 103.0374 0004769 295.5171  64.5495 15.00355970 49744,6943.935,95.977,569.111,562.488,0.0
56487.0,STARLINK-6196,PAYLOAD,2024-03-26 22:00:00,14.98291046,0.0003015,69.9996,101.688,264.7578,111.6539,0.0065936,0.00079399,0.0,0 STARLINK-6196,1 56487U 23064AR  24086.91667824  .00079399  00000-0  65936-2 0  9996,2 56487  69.9996 101.6880 0003015 264.7578 111.6539 14.98291046 49825,6950.313,96.109,574.274,570.083,0.0
56487.0,STARLINK-6196,PAYLOAD,2024-03-27 04:20:11,14.9832004,0.0002816,69.9986,101.0229,268.1789,91.9047,5.1465e-05,5.21e-06,0.0,0 STARLINK-6196,1 56487U 23064AR  24087.18069219  .00000521  00000-0  51465-4 0  9995,2 56487  69.9986 101.0229 0002816 268.1789  91.9047 14.98320040 49860,6950.224,96.108,574.046,570.132,0.0
56487.0,STARLINK-6196,PAYLOAD,2024-03-27 10:44:43,14.98324102,0.0002858,69.9986,100.3491,267.9524,92.1308,3.1301e-05,2.8e-06,0.0,0 STARLINK-6196,1 56487U 23064AR  24087.44773134  .00000280  00000-0  31301-4 0  9991,2 56487  69.9986 100.3491 0002858 267.9524  92.1308 14.98324102 49544,6950.211,96.107,574.063,570.09,0.0
56487.0,STARLINK-6196,PAYLOAD,2024-03-27 18:45:24,14.98327317,0.0002846,69.9988,99.5077,261.9105,98.1731,5.7127e-05,5.89e-06,0.0,0 STARLINK-6196,1 56487U 23064AR  24087.78152928  .00000589  00000-0  57127-4 0  9996,2 56487  69.9988  99.5077 0002846 261.9105  98.1731 14.98327317 49953,6950.201,96.107,574.044,570.088,0.0
56487.0,STARLINK-6196,PAYLOAD,2024-03-28 10:46:44,14.98329474,0.0002933,69.9986,97.8248,268.8149,91.2674,0.00013134,1.474e-05,0.0,0 STARLINK-6196,1 56487U 23064AR  24088.44912768  .00001474  00000-0  13134-3 0  9999,2 56487  69.9986  97.8248 0002933 268.8149  91.2674 14.98329474 49690,6950.195,96.107,574.098,570.021,0.0
56487.0,STARLINK-6196,PAYLOAD,2024-03-29 04:24:12,14.98336431,0.0002945,69.9987,95.9731,269.0882,90.9939,0.00012935,1.451e-05,0.0,0 STARLINK-6196,1 56487U 23064AR  24089.18348147  .00001451  00000-0  12935-3 0  9998,2 56487  69.9987  95.9731 0002945 269.0882  90.9939 14.98336431 50162,6950.173,96.107,574.085,569.991,0.0
56487.0,STARLINK-6196,PAYLOAD,2024-03-29 10:48:44,14.9834135,0.0002933,69.9987,95.2998,269.1379,90.9444,0.00012429,1.391e-05,0.0,0 STARLINK-6196,1 56487U 23064AR  24089.45051686  .00001391  00000-0  12429-3 0  9998,2 56487  69.9987  95.2998 0002933 269.1379  90.9444 14.98341350 49849,6950.158,96.106,574.061,569.984,0.0
